{
  "type": "FeatureCollection",
  "features": [
    {
      "type": "Feature",
      "properties": {
        "norad_id": 24946,
        "name": "IRIDIUM 33",
        "group": "iridium-33-debris",
        "lat": 53.17176248088984,
        "lon": 74.12488305596398,
        "alt_km": 774.4143825364245,
        "timestamp": "2025-12-10T04:57:30.006636+00:00",
        "meta_object_name": "IRIDIUM 33",
        "meta_object_id": "1997-051C",
        "meta_epoch": "2025-12-09T06:57:17.894016",
        "meta_mean_motion": 14.35033739,
        "meta_eccentricity": 0.0006648,
        "meta_inclination": 86.387,
        "meta_ra_of_asc_node": 69.6697,
        "meta_arg_of_pericenter": 213.1217,
        "meta_mean_anomaly": 146.9564,
        "meta_ephemeris_type": 0,
        "meta_classification_type": "U",
        "meta_norad_cat_id": 24946,
        "meta_element_set_no": 999,
        "meta_rev_at_epoch": 47785,
        "meta_bstar": 0.00021762,
        "meta_mean_motion_dot": 6.39e-06,
        "meta_mean_motion_ddot": 0,
        "tle_line1": "1 24946U 97051C   25343.28979044  .00000639  00000+0  21762-3 0  9995",
        "tle_line2": "2 24946  86.3870  69.6697 0006648 213.1217 146.9564 14.35033739477857"
      },
      "geometry": {
        "type": "Point",
        "coordinates": [
          74.12488305596398,
          53.17176248088984
        ]
      }
    },
    {
      "type": "Feature",
      "properties": {
        "norad_id": 33773,
        "name": "IRIDIUM 33 DEB",
        "group": "iridium-33-debris",
        "lat": -64.14301988588609,
        "lon": 54.202134862650965,
        "alt_km": 761.9273985787377,
        "timestamp": "2025-12-10T04:57:30.006662+00:00",
        "meta_object_name": "IRIDIUM 33 DEB",
        "meta_object_id": "1997-051L",
        "meta_epoch": "2025-12-09T15:56:42.177984",
        "meta_mean_motion": 14.43247151,
        "meta_eccentricity": 0.0012193,
        "meta_inclination": 86.4014,
        "meta_ra_of_asc_node": 61.8927,
        "meta_arg_of_pericenter": 155.4833,
        "meta_mean_anomaly": 204.695,
        "meta_ephemeris_type": 0,
        "meta_classification_type": "U",
        "meta_norad_cat_id": 33773,
        "meta_element_set_no": 999,
        "meta_rev_at_epoch": 88303,
        "meta_bstar": 0.00053841,
        "meta_mean_motion_dot": 1.832e-05,
        "meta_mean_motion_ddot": 0,
        "tle_line1": "1 33773U 97051L   25343.66437706  .00001832  00000+0  53841-3 0  9998",
        "tle_line2": "2 33773  86.4014  61.8927 0012193 155.4833 204.6950 14.43247151883036"
      },
      "geometry": {
        "type": "Point",
        "coordinates": [
          54.202134862650965,
          -64.14301988588609
        ]
      }
    },
    {
      "type": "Feature",
      "properties": {
        "norad_id": 33775,
        "name": "IRIDIUM 33 DEB",
        "group": "iridium-33-debris",
        "lat": 35.08066756860943,
        "lon": 53.19467976074525,
        "alt_km": 757.404457158561,
        "timestamp": "2025-12-10T04:57:30.006677+00:00",
        "meta_object_name": "IRIDIUM 33 DEB",
        "meta_object_id": "1997-051N",
        "meta_epoch": "2025-12-09T14:26:01.423104",
        "meta_mean_motion": 14.41458737,
        "meta_eccentricity": 0.0013944,
        "meta_inclination": 86.364,
        "meta_ra_of_asc_node": 50.8934,
        "meta_arg_of_pericenter": 164.3139,
        "meta_mean_anomaly": 332.5697,
        "meta_ephemeris_type": 0,
        "meta_classification_type": "U",
        "meta_norad_cat_id": 33775,
        "meta_element_set_no": 999,
        "meta_rev_at_epoch": 88095,
        "meta_bstar": 0.00057548,
        "meta_mean_motion_dot": 1.888e-05,
        "meta_mean_motion_ddot": 0,
        "tle_line1": "1 33775U 97051N   25343.60140536  .00001888  00000+0  57548-3 0  9995",
        "tle_line2": "2 33775  86.3640  50.8934 0013944 164.3139 332.5697 14.41458737880950"
      },
      "geometry": {
        "type": "Point",
        "coordinates": [
          53.19467976074525,
          35.08066756860943
        ]
      }
    },
    {
      "type": "Feature",
      "properties": {
        "norad_id": 33776,
        "name": "IRIDIUM 33 DEB",
        "group": "iridium-33-debris",
        "lat": -65.13362353824661,
        "lon": 74.0409971341958,
        "alt_km": 772.6676788197847,
        "timestamp": "2025-12-10T04:57:30.006690+00:00",
        "meta_object_name": "IRIDIUM 33 DEB",
        "meta_object_id": "1997-051P",
        "meta_epoch": "2025-12-09T18:17:03.768288",
        "meta_mean_motion": 14.38227801,
        "meta_eccentricity": 0.0013985,
        "meta_inclination": 86.4038,
        "meta_ra_of_asc_node": 82.0263,
        "meta_arg_of_pericenter": 200.3153,
        "meta_mean_anomaly": 312.9237,
        "meta_ephemeris_type": 0,
        "meta_classification_type": "U",
        "meta_norad_cat_id": 33776,
        "meta_element_set_no": 999,
        "meta_rev_at_epoch": 88039,
        "meta_bstar": 0.00057833,
        "meta_mean_motion_dot": 1.777e-05,
        "meta_mean_motion_ddot": 0,
        "tle_line1": "1 33776U 97051P   25343.76184917  .00001777  00000+0  57833-3 0  9998",
        "tle_line2": "2 33776  86.4038  82.0263 0013985 200.3153 312.9237 14.38227801880399"
      },
      "geometry": {
        "type": "Point",
        "coordinates": [
          74.0409971341958,
          -65.13362353824661
        ]
      }
    },
    {
      "type": "Feature",
      "properties": {
        "norad_id": 33777,
        "name": "IRIDIUM 33 DEB",
        "group": "iridium-33-debris",
        "lat": -75.50415825297391,
        "lon": 22.124781377514562,
        "alt_km": 711.5547482099482,
        "timestamp": "2025-12-10T04:57:30.006702+00:00",
        "meta_object_name": "IRIDIUM 33 DEB",
        "meta_object_id": "1997-051Q",
        "meta_epoch": "2025-12-09T09:30:28.800288",
        "meta_mean_motion": 14.5557564,
        "meta_eccentricity": 0.00050654,
        "meta_inclination": 86.3783,
        "meta_ra_of_asc_node": 36.6577,
        "meta_arg_of_pericenter": 264.7925,
        "meta_mean_anomaly": 95.2705,
        "meta_ephemeris_type": 0,
        "meta_classification_type": "U",
        "meta_norad_cat_id": 33777,
        "meta_element_set_no": 999,
        "meta_rev_at_epoch": 88485,
        "meta_bstar": 0.0013749308,
        "meta_mean_motion_dot": 6.014e-05,
        "meta_mean_motion_ddot": 0,
        "tle_line1": "1 33777U 97051Q   25343.39616667  .00006014  00000+0  13749-2 0  9996",
        "tle_line2": "2 33777  86.3783  36.6577 0005065 264.7925  95.2705 14.55575640884852"
      },
      "geometry": {
        "type": "Point",
        "coordinates": [
          22.124781377514562,
          -75.50415825297391
        ]
      }
    },
    {
      "type": "Feature",
      "properties": {
        "norad_id": 33850,
        "name": "IRIDIUM 33 DEB",
        "group": "iridium-33-debris",
        "lat": 9.924881424984216,
        "lon": 31.910389175066474,
        "alt_km": 761.0047931708423,
        "timestamp": "2025-12-10T04:57:30.006714+00:00",
        "meta_object_name": "IRIDIUM 33 DEB",
        "meta_object_id": "1997-051T",
        "meta_epoch": "2025-12-09T12:49:17.886720",
        "meta_mean_motion": 14.42137321,
        "meta_eccentricity": 0.0011876,
        "meta_inclination": 86.342,
        "meta_ra_of_asc_node": 31.558,
        "meta_arg_of_pericenter": 170.9459,
        "meta_mean_anomaly": 310.6825,
        "meta_ephemeris_type": 0,
        "meta_classification_type": "U",
        "meta_norad_cat_id": 33850,
        "meta_element_set_no": 999,
        "meta_rev_at_epoch": 88106,
        "meta_bstar": 0.00056175,
        "meta_mean_motion_dot": 1.868e-05,
        "meta_mean_motion_ddot": 0,
        "tle_line1": "1 33850U 97051T   25343.53423480  .00001868  00000+0  56175-3 0  9996",
        "tle_line2": "2 33850  86.3420  31.5580 0011876 170.9459 310.6825 14.42137321881060"
      },
      "geometry": {
        "type": "Point",
        "coordinates": [
          31.910389175066474,
          9.924881424984216
        ]
      }
    },
    {
      "type": "Feature",
      "properties": {
        "norad_id": 33853,
        "name": "IRIDIUM 33 DEB",
        "group": "iridium-33-debris",
        "lat": 65.11604769245956,
        "lon": -0.40128075303788896,
        "alt_km": 1041.3707157700983,
        "timestamp": "2025-12-10T04:57:30.006727+00:00",
        "meta_object_name": "IRIDIUM 33 DEB",
        "meta_object_id": "1997-051W",
        "meta_epoch": "2025-12-09T12:13:24.016800",
        "meta_mean_motion": 13.99031995,
        "meta_eccentricity": 0.02069783,
        "meta_inclination": 85.9998,
        "meta_ra_of_asc_node": 351.2277,
        "meta_arg_of_pericenter": 245.8173,
        "meta_mean_anomaly": 269.932,
        "meta_ephemeris_type": 0,
        "meta_classification_type": "U",
        "meta_norad_cat_id": 33853,
        "meta_element_set_no": 999,
        "meta_rev_at_epoch": 85300,
        "meta_bstar": 0.0029960339,
        "meta_mean_motion_dot": 5.22e-05,
        "meta_mean_motion_ddot": 0,
        "tle_line1": "1 33853U 97051W   25343.50930575  .00005220  00000+0  29960-2 0  9991",
        "tle_line2": "2 33853  85.9998 351.2277 0206978 245.8173 269.9320 13.99031995853007"
      },
      "geometry": {
        "type": "Point",
        "coordinates": [
          -0.40128075303788896,
          65.11604769245956
        ]
      }
    }
  ]
}